NORAD_CAT_ID,OBJECT_NAME,OBJECT_TYPE,EPOCH,MEAN_MOTION,ECCENTRICITY,INCLINATION,RA_OF_ASC_NODE,ARG_OF_PERICENTER,MEAN_ANOMALY,BSTAR,MEAN_MOTION_DOT,MEAN_MOTION_DDOT,TLE_LINE0,TLE_LINE1,TLE_LINE2,SEMIMAJOR_AXIS,PERIOD,APOGEE,PERIGEE,DECAYED
53905.0,STARLINK-5003,PAYLOAD,2024-02-20 10:54:24,15.0884871,0.0001539,53.217,73.3002,90.5203,269.5965,3.4991e-05,2.69e-06,0.0,0 STARLINK-5003,1 53905U 22119V   24051.45444528  .00000269  00000-0  34991-4 0  9992,2 53905  53.2170  73.3002 0001539  90.5203 269.5965 15.08848710 78441,6917.854,95.437,540.783,538.654,0.0
53905.0,STARLINK-5003,PAYLOAD,2024-02-20 18:51:19,15.08847975,0.0001529,53.2169,71.8133,89.4054,270.7113,1.8269e-05,3e-08,0.0,0 STARLINK-5003,1 53905U 22119V   24051.78564484  .00000003  00000-0  18269-4 0  9998,2 53905  53.2169  71.8133 0001529  89.4054 270.7113 15.08847975 78910,6917.856,95.437,540.779,538.663,0.0
53905.0,STARLINK-5003,PAYLOAD,2024-02-21 10:45:10,15.08851617,0.0001573,53.2177,68.8378,103.0714,257.0454,0.00012563,1.713e-05,0.0,0 STARLINK-5003,1 53905U 22119V   24052.44803905  .00001713  00000-0  12563-3 0  9995,2 53905  53.2177  68.8378 0001573 103.0714 257.0454 15.08851617 79017,6917.845,95.437,540.798,538.622,0.0
53905.0,STARLINK-5003,PAYLOAD,2024-02-22 04:14:26,15.08835323,0.0001529,53.2178,65.5681,94.0272,266.0895,4.9593e-05,5.01e-06,0.0,0 STARLINK-5003,1 53905U 22119V   24053.17669121  .00000501  00000-0  49593-4 0  9994,2 53905  53.2178  65.5681 0001529  94.0272 266.0895 15.08835323 78708,6917.895,95.438,540.817,538.702,0.0
53905.0,STARLINK-5003,PAYLOAD,2024-02-22 10:35:58,15.08842221,0.000153,53.2185,64.378,95.4286,264.688,4.4601e-05,4.22e-06,0.0,0 STARLINK-5003,1 53905U 22119V   24053.44164681  .00000422  00000-0  44601-4 0  9992,2 53905  53.2185  64.3780 0001530  95.4286 264.6880 15.08842221 79169,6917.874,95.437,540.797,538.68,0.0
53905.0,STARLINK-5003,PAYLOAD,2024-02-23 04:05:13,15.08834035,0.0001271,53.2196,61.1079,98.2819,261.8317,9.4609e-05,1.218e-05,0.0,0 STARLINK-5003,1 53905U 22119V   24054.17029019  .00001218  00000-0  94609-4 0  9995,2 53905  53.2196  61.1079 0001271  98.2819 261.8317 15.08834035 78855,6917.899,95.438,540.643,538.884,0.0
53905.0,STARLINK-5003,PAYLOAD,2024-02-23 05:40:36,15.0883486,0.0001227,53.2186,60.8093,99.3842,260.7289,8.2946e-05,1.032e-05,0.0,0 STARLINK-5003,1 53905U 22119V   24054.23653013  .00001032  00000-0  82946-4 0  9994,2 53905  53.2186  60.8093 0001227  99.3842 260.7289 15.08834860 79285,6917.896,95.438,540.61,538.912,0.0
53905.0,STARLINK-5003,PAYLOAD,2024-02-23 16:48:17,15.08845211,0.0001568,53.2185,58.7302,88.4039,271.7133,-9.2153e-06,-4.35e-06,0.0,0 STARLINK-5003,1 53905U 22119V   24054.70020669 -.00000435  00000-0 -92153-5 0  9991,2 53905  53.2185  58.7302 0001568  88.4039 271.7133 15.08845211 78931,6917.864,95.437,540.814,538.645,0.0
53905.0,STARLINK-5003,PAYLOAD,2024-02-24 03:56:00,15.08832375,0.0001402,53.2187,56.649,88.8397,271.2755,-6.1174e-06,-3.85e-06,0.0,0 STARLINK-5003,1 53905U 22119V   24055.16389783 -.00000385  00000-0 -61174-5 0  9990,2 53905  53.2187  56.6490 0001402  88.8397 271.2755 15.08832375 79007,6917.904,95.438,540.739,538.799,0.0
53905.0,STARLINK-5003,PAYLOAD,2024-02-24 07:06:46,15.08836957,0.0001493,53.2187,56.0557,97.5744,262.5418,2.6452e-05,1.33e-06,0.0,0 STARLINK-5003,1 53905U 22119V   24055.29637620  .00000133  00000-0  26452-4 0  9998,2 53905  53.2187  56.0557 0001493  97.5744 262.5418 15.08836957 79445,6917.89,95.438,540.788,538.722,0.0
53905.0,STARLINK-5003,PAYLOAD,2024-02-24 16:39:05,15.08840772,0.0001391,53.2187,54.2695,91.3826,268.7326,3.6193e-05,2.88e-06,0.0,0 STARLINK-5003,1 53905U 22119V   24055.69381278  .00000288  00000-0  36193-4 0  9991,2 53905  53.2187  54.2695 0001391  91.3826 268.7326 15.08840772 79084,6917.878,95.438,540.705,538.781,0.0
53905.0,STARLINK-5003,PAYLOAD,2024-02-24 23:00:38,15.08833116,0.0001296,53.2194,53.0821,87.8279,272.2861,0.00017361,2.476e-05,0.0,0 STARLINK-5003,1 53905U 22119V   24055.95877683  .00002476  00000-0  17361-3 0  9996,2 53905  53.2194  53.0821 0001296  87.8279 272.2861 15.08833116 79545,6917.901,95.438,540.663,538.87,0.0
53905.0,STARLINK-5003,PAYLOAD,2024-02-25 06:57:33,15.08846402,0.0001687,53.219,51.5959,115.7542,244.3624,0.00013511,1.863e-05,0.0,0 STARLINK-5003,1 53905U 22119V   24056.28996828  .00001863  00000-0  13511-3 0  9998,2 53905  53.2190  51.5959 0001687 115.7542 244.3624 15.08846402 79598,6917.861,95.437,540.893,538.559,0.0
53905.0,STARLINK-5003,PAYLOAD,2024-02-25 16:29:52,15.08846482,0.0001379,53.219,49.809,88.7841,271.3309,0.00012065,1.633e-05,0.0,0 STARLINK-5003,1 53905U 22119V   24056.68740858  .00001633  00000-0  12065-3 0  9990,2 53905  53.2190  49.8090 0001379  88.7841 271.3309 15.08846482 79658,6917.861,95.437,540.68,538.772,0.0
53905.0,STARLINK-5003,PAYLOAD,2024-02-26 03:37:34,15.0884328,0.0001535,53.219,47.7301,99.338,260.7786,0.00019026,2.742e-05,0.0,0 STARLINK-5003,1 53905U 22119V   24057.15109056  .00002742  00000-0  19026-3 0  9998,2 53905  53.2190  47.7301 0001535  99.3380 260.7786 15.08843280 79306,6917.87,95.437,540.797,538.673,0.0
53905.0,STARLINK-5003,PAYLOAD,2024-02-26 06:48:20,15.08848001,0.0001545,53.2178,47.1348,97.6384,262.4784,0.0002073,3.013e-05,0.0,0 STARLINK-5003,1 53905U 22119V   24057.28356765  .00003013  00000-0  20730-3 0  9999,2 53905  53.2178  47.1348 0001545  97.6384 262.4784 15.08848001 79744,6917.856,95.437,540.79,538.652,0.0
53905.0,STARLINK-5003,PAYLOAD,2024-02-26 22:42:12,15.08839018,0.0001592,53.2185,44.162,95.5358,264.5816,-1.3183e-06,-3.09e-06,0.0,0 STARLINK-5003,1 53905U 22119V   24057.94597309 -.00000309  00000-0 -13183-5 0  9996,2 53905  53.2185  44.1620 0001592  95.5358 264.5816 15.08839018 79840,6917.883,95.438,540.85,538.647,0.0
53905.0,STARLINK-5003,PAYLOAD,2024-02-27 03:28:21,15.08835594,0.0001672,53.2184,43.2696,86.7907,273.3276,-2.8983e-05,-7.49e-06,0.0,0 STARLINK-5003,1 53905U 22119V   24058.14469640 -.00000749  00000-0 -28983-4 0  9996,2 53905  53.2184  43.2696 0001672  86.7907 273.3276 15.08835594 79453,6917.894,95.438,540.916,538.602,0.0
53905.0,STARLINK-5003,PAYLOAD,2024-02-27 08:14:31,15.08843221,0.0001476,53.2186,42.3764,92.3414,267.7748,1.6446e-05,-2.6e-07,0.0,0 STARLINK-5003,1 53905U 22119V   24058.34341481 -.00000026  00000-0  16446-4 0  9998,2 53905  53.2186  42.3764 0001476  92.3414 267.7748 15.08843221 79906,6917.871,95.437,540.757,538.714,0.0
53905.0,STARLINK-5003,PAYLOAD,2024-02-27 22:32:59,15.0884734,0.0001844,53.219,39.6985,89.8763,270.2441,-1.1876e-05,-4.77e-06,0.0,0 STARLINK-5003,1 53905U 22119V   24058.93957356 -.00000477  00000-0 -11876-4 0  9990,2 53905  53.2190  39.6985 0001844  89.8763 270.2441 15.08847340 79996,6917.858,95.437,540.999,538.447,0.0
53905.0,STARLINK-5003,PAYLOAD,2024-02-28 04:54:31,15.08848862,0.0001319,53.2177,38.5085,96.7595,263.3547,0.00013655,1.886e-05,0.0,0 STARLINK-5003,1 53905U 22119V   24059.20452726  .00001886  00000-0  13655-3 0  9991,2 53905  53.2177  38.5085 0001319  96.7595 263.3547 15.08848862 79616,6917.853,95.437,540.631,538.806,0.0
53905.0,STARLINK-5003,PAYLOAD,2024-02-28 16:02:13,15.08843233,0.0001312,53.2169,36.4268,107.563,252.5506,1.3345e-05,-7.5e-07,0.0,0 STARLINK-5003,1 53905U 22119V   24059.66821087 -.00000075  00000-0  13345-4 0  9998,2 53905  53.2169  36.4268 0001312 107.5630 252.5506 15.08843233 79680,6917.871,95.437,540.643,538.828,0.0
53905.0,STARLINK-5003,PAYLOAD,2024-02-29 04:45:19,15.08834301,0.0001447,53.2184,34.0484,92.1868,267.929,5.3548e-05,5.64e-06,0.0,0 STARLINK-5003,1 53905U 22119V   24060.19814071  .00000564  00000-0  53548-4 0  9994,2 53905  53.2184  34.0484 0001447  92.1868 267.9290 15.08834301 79767,6917.898,95.438,540.764,538.762,0.0
53905.0,STARLINK-5003,PAYLOAD,2024-02-29 07:56:05,15.0883885,0.0001498,53.2192,33.4531,93.0928,267.0235,7.3033e-05,8.75e-06,0.0,0 STARLINK-5003,1 53905U 22119V   24060.33061781  .00000875  00000-0  73033-4 0  9998,2 53905  53.2192  33.4531 0001498  93.0928 267.0235 15.08838850 80209,6917.884,95.438,540.785,538.713,0.0
53905.0,STARLINK-5003,PAYLOAD,2024-02-29 22:14:33,15.08836489,0.0001353,53.2197,30.7762,96.6909,263.4238,8.3416e-05,1.04e-05,0.0,0 STARLINK-5003,1 53905U 22119V   24060.92677914  .00001040  00000-0  83416-4 0  9995,2 53905  53.2197  30.7762 0001353  96.6909 263.4238 15.08836489 80296,6917.891,95.438,540.692,538.82,0.0
53905.0,STARLINK-5003,PAYLOAD,2024-03-01 04:36:05,15.08842939,0.0001342,53.2188,29.5874,93.9206,266.194,0.00012081,1.635e-05,0.0,0 STARLINK-5003,1 53905U 22119V   24061.19173424  .00001635  00000-0  12081-3 0  9991,2 53905  53.2188  29.5874 0001342  93.9206 266.1940 15.08842939 79918,6917.871,95.437,540.665,538.808,0.0
53905.0,STARLINK-5003,PAYLOAD,2024-03-01 07:46:51,15.08849306,0.0001736,53.2188,28.9925,103.2553,256.8632,5.3322e-05,5.61e-06,0.0,0 STARLINK-5003,1 53905U 22119V   24061.32421153  .00000561  00000-0  53322-4 0  9992,2 53905  53.2188  28.9925 0001736 103.2553 256.8632 15.08849306 80354,6917.852,95.437,540.918,538.516,0.0
53905.0,STARLINK-5003,PAYLOAD,2024-03-02 02:51:30,15.08834603,0.0001416,53.2182,25.4229,92.9942,267.1212,0.00018823,2.709e-05,0.0,0 STARLINK-5003,1 53905U 22119V   24062.11909872  .00002709  00000-0  18823-3 0  9991,2 53905  53.2182  25.4229 0001416  92.9942 267.1212 15.08834603 80058,6917.897,95.438,540.741,538.782,0.0
53905.0,STARLINK-5003,PAYLOAD,2024-03-02 04:26:52,15.08844435,0.0001426,53.219,25.1247,89.3849,270.7306,0.00013841,1.916e-05,0.0,0 STARLINK-5003,1 53905U 22119V   24062.18533351  .00001916  00000-0  13841-3 0  9997,2 53905  53.2190  25.1247 0001426  89.3849 270.7306 15.08844435 80060,6917.867,95.437,540.718,538.745,0.0
53905.0,STARLINK-5003,PAYLOAD,2024-03-03 04:17:40,15.08840432,0.0001374,53.2188,20.6673,88.3613,271.7537,1.615e-05,-3.1e-07,0.0,0 STARLINK-5003,1 53905U 22119V   24063.17893902 -.00000031  00000-0  16150-4 0  9993,2 53905  53.2188  20.6673 0001374  88.3613 271.7537 15.08840432 80217,6917.879,95.438,540.695,538.794,0.0
